1 37673U 11024A   13307.08442275  .00000696  00000-0  11793-3 0  9995
2 37673 098.0128 312.5407 0001308 102.8290 298.1584 14.72325189128967
